[{"OBJECT_NAME":"GAOFEN-12 03","OBJECT_ID":"2022-069A","EPOCH":"2026-03-09T22:26:41.020800","MEAN_MOTION":14.79856399,"ECCENTRICITY":0.00023242,"INCLINATION":97.8403,"RA_OF_ASC_NODE":319.2501,"ARG_OF_PERICENTER":91.8845,"MEAN_ANOMALY":268.2634,"EPHEMERIS_TYPE":0,"CLASSIFICATION_TYPE":"U","NORAD_CAT_ID":52912,"ELEMENT_SET_NO":999,"REV_AT_EPOCH":19993,"BSTAR":0.00029245071,"MEAN_MOTION_DOT":2.154e-5,"MEAN_MOTION_DDOT":0},{"OBJECT_NAME":"COSMOS 2251 DEB","OBJECT_ID":"1993-036ANH","EPOCH":"2026-03-09T21:57:26.169408","MEAN_MOTION":14.67957567,"ECCENTRICITY":0.00758276,"INCLINATION":73.9586,"RA_OF_ASC_NODE":158.3026,"ARG_OF_PERICENTER":349.0076,"MEAN_ANOMALY":10.9432,"EPHEMERIS_TYPE":0,"CLASSIFICATION_TYPE":"U","NORAD_CAT_ID":35614,"ELEMENT_SET_NO":999,"REV_AT_EPOCH":89008,"BSTAR":0.00081766927,"MEAN_MOTION_DOT":4.859e-5,"MEAN_MOTION_DDOT":0}]
